NORAD_CAT_ID,OBJECT_NAME,OBJECT_TYPE,EPOCH,MEAN_MOTION,ECCENTRICITY,INCLINATION,RA_OF_ASC_NODE,ARG_OF_PERICENTER,MEAN_ANOMALY,BSTAR,MEAN_MOTION_DOT,MEAN_MOTION_DDOT,TLE_LINE0,TLE_LINE1,TLE_LINE2,SEMIMAJOR_AXIS,PERIOD,APOGEE,PERIGEE,DECAYED
51737.0,STARLINK-3509,PAYLOAD,2023-09-09 06:21:40,15.08849914,0.0001231,53.217,95.1558,86.018,274.0953,-1.1908e-05,-4.77e-06,0.0,0 STARLINK-3509,1 51737U 22016Z   23252.26504995 -.00000477  00000-0 -11908-4 0  9991,2 51737  53.2170  95.1558 0001231  86.0180 274.0953 15.08849914 85817,6917.85,95.437,540.567,538.863,0.0
51737.0,STARLINK-3509,PAYLOAD,2023-09-09 19:04:46,15.0883219,0.0001393,53.2178,92.7753,94.7866,265.3285,2.0305e-05,3.5e-07,0.0,0 STARLINK-3509,1 51737U 22016Z   23252.79498445  .00000035  00000-0  20305-4 0  9990,2 51737  53.2178  92.7753 0001393  94.7866 265.3285 15.08832190 86956,6917.904,95.438,540.733,538.806,0.0
51737.0,STARLINK-3509,PAYLOAD,2023-09-10 14:09:24,15.08838345,0.000136,53.2179,89.2088,91.2073,268.9075,-1.8834e-05,-5.88e-06,0.0,0 STARLINK-3509,1 51737U 22016Z   23253.58986529 -.00000588  00000-0 -18834-4 0  9992,2 51737  53.2179  89.2088 0001360  91.2073 268.9075 15.08838345 86016,6917.885,95.438,540.691,538.81,0.0
51737.0,STARLINK-3509,PAYLOAD,2023-09-10 23:41:42,15.08834299,0.0001419,53.2179,87.4241,97.5906,262.5247,0.00014802,2.068e-05,0.0,0 STARLINK-3509,1 51737U 22016Z   23253.98730323  .00002068  00000-0  14802-3 0  9998,2 51737  53.2179  87.4241 0001419  97.5906 262.5247 15.08834299 87135,6917.898,95.438,540.744,538.781,0.0
51737.0,STARLINK-3509,PAYLOAD,2023-09-11 06:03:15,15.08843601,0.0001338,53.2179,86.2346,87.5872,272.5273,-7.2338e-06,-4.03e-06,0.0,0 STARLINK-3509,1 51737U 22016Z   23254.25226201 -.00000403  00000-0 -72338-5 0  9997,2 51737  53.2179  86.2346 0001338  87.5872 272.5273 15.08843601 86113,6917.869,95.437,540.66,538.809,0.0
51737.0,STARLINK-3509,PAYLOAD,2023-09-11 21:57:06,15.08848992,0.0001255,53.2175,83.26,88.2694,271.8442,0.00012564,1.713e-05,0.0,0 STARLINK-3509,1 51737U 22016Z   23254.91465558  .00001713  00000-0  12564-3 0  9996,2 51737  53.2175  83.2600 0001255  88.2694 271.8442 15.08848992 87273,6917.853,95.437,540.586,538.85,0.0
51737.0,STARLINK-3509,PAYLOAD,2023-09-12 05:54:02,15.08845726,0.0001265,53.2182,81.773,87.1543,272.9594,2.3569e-05,8.7e-07,0.0,0 STARLINK-3509,1 51737U 22016Z   23255.24585991  .00000087  00000-0  23569-4 0  9998,2 51737  53.2182  81.7730 0001265  87.1543 272.9594 15.08845726 87328,6917.863,95.437,540.603,538.853,0.0
51737.0,STARLINK-3509,PAYLOAD,2023-09-12 12:15:35,15.08838204,0.0001492,53.218,80.5847,86.6311,273.4852,7.5014e-05,9.06e-06,0.0,0 STARLINK-3509,1 51737U 22016Z   23255.51082484  .00000906  00000-0  75014-4 0  9999,2 51737  53.2180  80.5847 0001492  86.6311 273.4852 15.08838204 86304,6917.886,95.438,540.783,538.719,0.0
51737.0,STARLINK-3509,PAYLOAD,2023-09-12 18:37:07,15.08845051,0.0001293,53.2175,79.3947,89.4252,270.6888,7.2399e-05,8.65e-06,0.0,0 STARLINK-3509,1 51737U 22016Z   23255.77578025  .00000865  00000-0  72399-4 0  9995,2 51737  53.2175  79.3947 0001293  89.4252 270.6888 15.08845051 86349,6917.865,95.437,540.624,538.835,0.0
51737.0,STARLINK-3509,PAYLOAD,2023-09-13 12:06:21,15.08846345,0.0001301,53.2175,76.1239,88.7355,271.3787,0.00010522,1.387e-05,0.0,0 STARLINK-3509,1 51737U 22016Z   23256.50441700  .00001387  00000-0  10522-3 0  9995,2 51737  53.2175  76.1239 0001301  88.7355 271.3787 15.08846345 86459,6917.861,95.437,540.626,538.826,0.0
51737.0,STARLINK-3509,PAYLOAD,2023-09-13 18:27:53,15.08855988,0.0001216,53.2175,74.9342,90.9702,269.143,9.7179e-05,1.26e-05,0.0,0 STARLINK-3509,1 51737U 22016Z   23256.76937031  .00001260  00000-0  97179-4 0  9994,2 51737  53.2175  74.9342 0001216  90.9702 269.1430 15.08855988 87551,6917.832,95.437,540.538,538.855,0.0
51737.0,STARLINK-3509,PAYLOAD,2023-09-14 11:57:09,15.08835666,0.0001335,53.2171,71.6646,82.9234,277.191,3.5096e-05,2.71e-06,0.0,0 STARLINK-3509,1 51737U 22016Z   23257.49802633  .00000271  00000-0  35096-4 0  9995,2 51737  53.2171  71.6646 0001335  82.9234 277.1910 15.08835666 86609,6917.894,95.438,540.682,538.835,0.0
51737.0,STARLINK-3509,PAYLOAD,2023-09-14 18:18:42,15.08831896,0.0001294,53.2171,70.4752,87.9561,272.158,-7.1475e-05,-1.425e-05,0.0,0 STARLINK-3509,1 51737U 22016Z   23257.76298737 -.00001425  00000-0 -71475-4 0  9994,2 51737  53.2171  70.4752 0001294  87.9561 272.1580 15.08831896 87707,6917.905,95.438,540.665,538.875,0.0
51737.0,STARLINK-3509,PAYLOAD,2023-09-15 11:47:56,15.08841364,0.0001093,53.218,67.2029,95.2964,264.8153,-5.9868e-07,-2.97e-06,0.0,0 STARLINK-3509,1 51737U 22016Z   23258.49162550 -.00000297  00000-0 -59868-6 0  9998,2 51737  53.2180  67.2029 0001093  95.2964 264.8153 15.08841364 86753,6917.876,95.437,540.497,538.985,0.0
51737.0,STARLINK-3509,PAYLOAD,2023-09-15 18:09:28,15.08849258,0.0001139,53.2182,66.0144,94.0738,266.0384,8.8421e-05,1.12e-05,0.0,0 STARLINK-3509,1 51737U 22016Z   23258.75657858  .00001120  00000-0  88421-4 0  9996,2 51737  53.2182  66.0144 0001139  94.0738 266.0384 15.08849258 87859,6917.852,95.437,540.505,538.929,0.0
51737.0,STARLINK-3509,PAYLOAD,2023-09-16 10:03:20,15.0883505,0.0001398,53.2171,63.0402,88.1946,271.9206,0.00015569,2.19e-05,0.0,0 STARLINK-3509,1 51737U 22016Z   23259.41898927  .00002190  00000-0  15569-3 0  9994,2 51737  53.2171  63.0402 0001398  88.1946 271.9206 15.08835050 87957,6917.896,95.438,540.728,538.793,0.0
51737.0,STARLINK-3509,PAYLOAD,2023-09-16 11:38:43,15.08833215,0.0001357,53.2175,62.7428,96.7475,263.3671,0.0001289,1.764e-05,0.0,0 STARLINK-3509,1 51737U 22016Z   23259.48523023  .00001764  00000-0  12890-3 0  9993,2 51737  53.2175  62.7428 0001357  96.7475 263.3671 15.08833215 86908,6917.901,95.438,540.705,538.827,0.0
51737.0,STARLINK-3509,PAYLOAD,2023-09-17 09:54:07,15.08848051,0.0001255,53.2183,58.5807,91.0197,269.0939,0.00021511,3.138e-05,0.0,0 STARLINK-3509,1 51737U 22016Z   23260.41258633  .00003138  00000-0  21511-3 0  9997,2 51737  53.2183  58.5807 0001255  91.0197 269.0939 15.08848051 87047,6917.856,95.437,540.589,538.853,0.0
51737.0,STARLINK-3509,PAYLOAD,2023-09-17 17:51:02,15.08854524,0.0001227,53.2183,57.094,91.1149,268.9984,0.00046783,7.168e-05,0.0,0 STARLINK-3509,1 51737U 22016Z   23260.74378423  .00007168  00000-0  46783-3 0  9998,2 51737  53.2183  57.0940 0001227  91.1149 268.9984 15.08854524 88159,6917.836,95.437,540.55,538.852,0.0
51737.0,STARLINK-3509,PAYLOAD,2023-09-18 03:23:22,15.08825948,0.0001471,53.2176,55.3083,87.9011,272.215,-0.00011151,-2.061e-05,0.0,0 STARLINK-3509,1 51737U 22016Z   23261.14123620 -.00002061  00000-0 -11151-3 0  9990,2 51737  53.2176  55.3083 0001471  87.9011 272.2150 15.08825948 88210,6917.923,95.438,540.806,538.771,0.0
51737.0,STARLINK-3509,PAYLOAD,2023-09-18 17:41:51,15.08822109,0.0001502,53.2186,52.6332,86.5557,273.5607,-4.9514e-05,-1.075e-05,0.0,0 STARLINK-3509,1 51737U 22016Z   23261.73740527 -.00001075  00000-0 -49514-4 0  9995,2 51737  53.2186  52.6332 0001502  86.5557 273.5607 15.08822109 87242,6917.935,95.439,540.839,538.761,0.0
51737.0,STARLINK-3509,PAYLOAD,2023-09-19 09:35:42,15.08854485,0.0001165,53.2172,49.6595,89.5804,270.5322,0.0010652,0.00016712,0.0,0 STARLINK-3509,1 51737U 22016Z   23262.39980145  .00016712  00000-0  10652-2 0  9991,2 51737  53.2172  49.6595 0001165  89.5804 270.5322 15.08854485 88409,6917.836,95.437,540.507,538.895,0.0
51737.0,STARLINK-3509,PAYLOAD,2023-09-19 17:32:37,15.08883699,0.000132,53.2179,48.1744,82.9851,277.1291,0.0014385,0.00022707,0.0,0 STARLINK-3509,1 51737U 22016Z   23262.73099337  .00022707  00000-0  14385-2 0  9991,2 51737  53.2179  48.1744 0001320  82.9851 277.1291 15.08883699 88450,6917.747,95.435,540.525,538.699,0.0
51737.0,STARLINK-3509,PAYLOAD,2023-09-20 09:26:29,15.0885391,0.0001474,53.2183,45.2003,73.9248,286.1907,0.0011673,0.00018345,0.0,0 STARLINK-3509,1 51737U 22016Z   23263.39339719  .00018345  00000-0  11673-2 0  9995,2 51737  53.2183  45.2003 0001474  73.9248 286.1907 15.08853910 88559,6917.838,95.437,540.723,538.683,0.0
51737.0,STARLINK-3509,PAYLOAD,2023-09-20 14:12:38,15.0885015,8.82e-05,53.218,44.308,139.8812,220.2245,0.0014512,0.0002289,0.0,0 STARLINK-3509,1 51737U 22016Z   23263.59211536  .00022890  00000-0  14512-2 0  9998,2 51737  53.2180  44.3080 0000882 139.8812 220.2245 15.08850150 87525,6917.849,95.437,540.325,539.104,0.0
51737.0,STARLINK-3509,PAYLOAD,2023-09-20 15:48:02,15.08838773,0.0001223,53.2191,44.0086,104.0801,256.0327,0.00072905,0.00011334,0.0,0 STARLINK-3509,1 51737U 22016Z   23263.65835742  .00011334  00000-0  72905-3 0  9998,2 51737  53.2191  44.0086 0001223 104.0801 256.0327 15.08838773 88595,6917.884,95.438,540.595,538.903,0.0
51737.0,STARLINK-3509,PAYLOAD,2023-09-21 09:17:16,15.0884519,0.0001206,53.2186,40.739,100.6883,259.4245,0.00058439,9.026e-05,0.0,0 STARLINK-3509,1 51737U 22016Z   23264.38699849  .00009026  00000-0  58439-3 0  9996,2 51737  53.2186  40.7390 0001206 100.6883 259.4245 15.08845190 88703,6917.865,95.437,540.564,538.895,0.0
51737.0,STARLINK-3509,PAYLOAD,2023-09-21 12:28:02,15.08847588,0.0001067,53.2174,40.1451,92.1165,267.995,0.00056509,8.719e-05,0.0,0 STARLINK-3509,1 51737U 22016Z   23264.51947735  .00008719  00000-0  56509-3 0  9995,2 51737  53.2174  40.1451 0001067  92.1165 267.9950 15.08847588 87669,6917.857,95.437,540.46,538.984,0.0
51737.0,STARLINK-3509,PAYLOAD,2023-09-21 15:38:48,15.08855559,0.0001219,53.2186,39.5491,101.3163,258.7966,0.00076763,0.00011955,0.0,0 STARLINK-3509,1 51737U 22016Z   23264.65195496  .00011955  00000-0  76763-3 0  9999,2 51737  53.2186  39.5491 0001219 101.3163 258.7966 15.08855559 87682,6917.833,95.437,540.541,538.855,0.0
51737.0,STARLINK-3509,PAYLOAD,2023-09-22 09:08:03,15.08855781,0.0001192,53.2181,36.2783,100.9695,259.1431,0.000495,7.602e-05,0.0,0 STARLINK-3509,1 51737U 22016Z   23265.38059266  .00007602  00000-0  49500-3 0  9997,2 51737  53.2181  36.2783 0001192 100.9695 259.1431 15.08855781 88859,6917.832,95.437,540.522,538.873,0.0
